GLOBALSTAR M063         
1 26081U 00008A   25331.91439749 -.00000110  00000+0 -40061-3 0  9992
2 26081  51.9980  40.3686 0004264 262.7215 267.8908 11.86177504177004
GLOBALSTAR M062         
1 26082U 00008B   25331.72368927 -.00000050  00000+0  34189-3 0  9997
2 26082  51.9868 334.8663 0007304 101.0015  70.7036 12.43477879516964
GLOBALSTAR M060         
1 26083U 00008C   25331.68643907 -.00000089  00000+0  22151-4 0  9996
2 26083  52.0036 318.1157 0003445  91.8388  79.8150 12.17668358172283
GLOBALSTAR M064         
1 26084U 00008D   25331.71677849 -.00000060  00000+0  33028-3 0  9996
2 26084  51.9998 137.7905 0001985  50.6789 309.4220 11.88539389186542
GLOBALSTAR M065         
1 31571U 07020A   25332.03588435 -.00000056  00000+0  26817-3 0  9995
2 31571  51.9893  87.5576 0009170 313.0391 219.1952 12.62015057854093
GLOBALSTAR M069         
1 31573U 07020C   25331.63438655 -.00000074  00000+0  16769-3 0  9995
2 31573  52.0021 102.5953 0002754 100.3055 273.1598 12.23464084854138
GLOBALSTAR M072         
1 31574U 07020D   25331.59934421 -.00000058  00000+0  35544-3 0  9997
2 31574  51.9941 276.9271 0000959 315.9314 214.6012 11.91653670850945
GLOBALSTAR M071         
1 31576U 07020F   25331.71800456 -.00000132  00000+0 -40307-3 0  9990
2 31576  52.0032 132.5878 0001980  91.9272 281.1621 12.18262408514878
